NORAD_CAT_ID,OBJECT_NAME,OBJECT_TYPE,EPOCH,MEAN_MOTION,ECCENTRICITY,INCLINATION,RA_OF_ASC_NODE,ARG_OF_PERICENTER,MEAN_ANOMALY,BSTAR,MEAN_MOTION_DOT,MEAN_MOTION_DDOT,TLE_LINE0,TLE_LINE1,TLE_LINE2,SEMIMAJOR_AXIS,PERIOD,APOGEE,PERIGEE,DECAYED
52291.0,STARLINK-3773,PAYLOAD,2024-01-12 09:01:25,15.08849956,0.000142,53.2171,33.5127,104.8686,255.2463,4.7566e-05,4.69e-06,0.0,0 STARLINK-3773,1 52291U 22041AG  24012.37598911  .00000469  00000-0  47566-4 0  9991,2 52291  53.2171  33.5127 0001420 104.8686 255.2463 15.08849956 96862,6917.85,95.437,540.697,538.733,0.0
52291.0,STARLINK-3773,PAYLOAD,2024-01-12 23:19:54,15.08833877,0.0001524,53.2185,30.8365,118.7656,241.3489,6.4107e-05,7.32e-06,0.0,0 STARLINK-3773,1 52291U 22041AG  24012.97215946  .00000732  00000-0  64107-4 0  9994,2 52291  53.2185  30.8365 0001524 118.7656 241.3489 15.08833877 96956,6917.899,95.438,540.818,538.71,0.0
52291.0,STARLINK-3773,PAYLOAD,2024-01-13 10:27:35,15.0885527,0.0001262,53.2179,28.7505,104.3814,255.7318,-0.00013468,-2.432e-05,0.0,0 STARLINK-3773,1 52291U 22041AG  24013.43582973 -.00002432  00000-0 -13468-3 0  9997,2 52291  53.2179  28.7505 0001262 104.3814 255.7318 15.08855270 97027,6917.834,95.437,540.572,538.826,0.0
52291.0,STARLINK-3773,PAYLOAD,2024-01-14 03:56:50,15.08830951,0.0001938,53.2175,25.4784,132.4104,227.7052,0.00026122,3.871e-05,0.0,0 STARLINK-3773,1 52291U 22041AG  24014.16447879  .00003871  00000-0  26122-3 0  9990,2 52291  53.2175  25.4784 0001938 132.4104 227.7052 15.08830951 97135,6917.908,95.438,541.114,538.432,0.0
52291.0,STARLINK-3773,PAYLOAD,2024-01-14 10:18:23,15.08842571,0.0001828,53.2168,24.2886,128.207,231.9087,0.00032963,4.962e-05,0.0,0 STARLINK-3773,1 52291U 22041AG  24014.42943741  .00004962  00000-0  32963-3 0  9990,2 52291  53.2168  24.2886 0001828 128.2070 231.9087 15.08842571 95954,6917.873,95.437,541.002,538.473,0.0
52291.0,STARLINK-3773,PAYLOAD,2024-01-15 03:47:38,15.08839947,0.0001566,53.2165,21.0151,115.3637,244.7517,0.00015684,2.209e-05,0.0,0 STARLINK-3773,1 52291U 22041AG  24015.15807926  .00002209  00000-0  15684-3 0  9998,2 52291  53.2165  21.0151 0001566 115.3637 244.7517 15.08839947 97287,6917.881,95.438,540.829,538.662,0.0
52291.0,STARLINK-3773,PAYLOAD,2024-01-15 05:23:01,15.08842479,0.0001463,53.2164,20.7193,96.8904,263.2255,0.00014951,2.092e-05,0.0,0 STARLINK-3773,1 52291U 22041AG  24015.22431905  .00002092  00000-0  14951-3 0  9992,2 52291  53.2164  20.7193 0001463  96.8904 263.2255 15.08842479 96079,6917.873,95.437,540.75,538.726,0.0
52291.0,STARLINK-3773,PAYLOAD,2024-01-16 09:59:57,15.08840005,0.0001676,53.2182,15.372,102.7399,257.378,3.4762e-06,-2.33e-06,0.0,0 STARLINK-3773,1 52291U 22041AG  24016.41664079 -.00000233  00000-0  34762-5 0  9994,2 52291  53.2182  15.3720 0001676 102.7399 257.3780 15.08840005 97471,6917.88,95.438,540.905,538.586,0.0
52291.0,STARLINK-3773,PAYLOAD,2024-01-17 06:39:58,15.08839849,0.0001797,53.2196,11.5059,106.7639,253.355,0.00011649,1.566e-05,0.0,0 STARLINK-3773,1 52291U 22041AG  24017.27776211  .00001566  00000-0  11649-3 0  9997,2 52291  53.2196  11.5059 0001797 106.7639 253.3550 15.08839849 96388,6917.881,95.438,540.989,538.503,0.0
52291.0,STARLINK-3773,PAYLOAD,2024-01-18 03:19:59,15.08839515,0.0001451,53.2181,7.6437,108.607,251.508,1.0432e-05,-1.22e-06,0.0,0 STARLINK-3773,1 52291U 22041AG  24018.13888760 -.00000122  00000-0  10432-4 0  9994,2 52291  53.2181   7.6437 0001451 108.6070 251.5080 15.08839515 97733,6917.882,95.438,540.751,538.743,0.0
52291.0,STARLINK-3773,PAYLOAD,2024-01-18 08:06:08,15.0884529,0.0001443,53.2182,6.7491,107.4018,252.7132,5.4328e-05,5.77e-06,0.0,0 STARLINK-3773,1 52291U 22041AG  24018.33760235  .00000577  00000-0  54328-4 0  9997,2 52291  53.2182   6.7491 0001443 107.4018 252.7132 15.08845290 96540,6917.864,95.437,540.727,538.731,0.0
52291.0,STARLINK-3773,PAYLOAD,2024-01-19 03:10:47,15.08838291,0.000162,53.2197,3.1821,96.2647,263.8529,3.045e-05,1.97e-06,0.0,0 STARLINK-3773,1 52291U 22041AG  24019.13248971  .00000197  00000-0  30450-4 0  9992,2 52291  53.2197   3.1821 0001620  96.2647 263.8529 15.08838291 97888,6917.886,95.438,540.871,538.63,0.0
52291.0,STARLINK-3773,PAYLOAD,2024-01-19 07:56:55,15.08846658,0.0001689,53.2194,2.2892,91.4413,268.6772,0.00011316,1.514e-05,0.0,0 STARLINK-3773,1 52291U 22041AG  24019.33120340  .00001514  00000-0  11316-3 0  9996,2 52291  53.2194   2.2892 0001689  91.4413 268.6772 15.08846658 97919,6917.86,95.437,540.893,538.557,0.0
52291.0,STARLINK-3773,PAYLOAD,2024-01-19 22:15:24,15.08843579,0.0001719,53.2179,359.6174,68.2253,291.8922,0.00011745,1.582e-05,0.0,0 STARLINK-3773,1 52291U 22041AG  24019.92736553  .00001582  00000-0  11745-3 0  9991,2 52291  53.2179 359.6174 0001719  68.2253 291.8922 15.08843579 96780,6917.869,95.437,540.924,538.545,0.0
52291.0,STARLINK-3773,PAYLOAD,2024-01-20 03:01:33,15.08840944,0.0001426,53.2173,358.7205,112.2456,247.8688,0.00010817,1.434e-05,0.0,0 STARLINK-3773,1 52291U 22041AG  24020.12608425  .00001434  00000-0  10817-3 0  9996,2 52291  53.2173 358.7205 0001426 112.2456 247.8688 15.08840944 98032,6917.878,95.437,540.729,538.756,0.0
52291.0,STARLINK-3773,PAYLOAD,2024-01-20 07:47:42,15.08848427,0.0001567,53.2175,357.8277,70.4645,289.6516,0.00012875,1.762e-05,0.0,0 STARLINK-3773,1 52291U 22041AG  24020.32479921  .00001762  00000-0  12875-3 0  9995,2 52291  53.2175 357.8277 0001567  70.4645 289.6516 15.08848427 98065,6917.855,95.437,540.804,538.636,0.0
52291.0,STARLINK-3773,PAYLOAD,2024-01-20 22:06:12,15.08839741,0.0001995,53.2188,355.1569,75.871,284.2503,-2.4705e-05,-6.81e-06,0.0,0 STARLINK-3773,1 52291U 22041AG  24020.92097365 -.00000681  00000-0 -24705-4 0  9996,2 52291  53.2188 355.1569 0001995  75.8710 284.2503 15.08839741 96931,6917.881,95.438,541.126,538.366,0.0
52291.0,STARLINK-3773,PAYLOAD,2024-01-21 02:52:21,15.08838682,0.0001894,53.2183,354.2622,88.053,272.0679,-3.1437e-05,-7.88e-06,0.0,0 STARLINK-3773,1 52291U 22041AG  24021.11969332 -.00000788  00000-0 -31437-4 0  9998,2 52291  53.2183 354.2622 0001894  88.0530 272.0679 15.08838682 98181,6917.884,95.438,541.06,538.439,0.0
52291.0,STARLINK-3773,PAYLOAD,2024-01-21 04:27:44,15.08841987,0.0001692,53.2187,353.9638,98.3629,261.7555,-4.6631e-05,-1.03e-05,0.0,0 STARLINK-3773,1 52291U 22041AG  24021.18593083 -.00001030  00000-0 -46631-4 0  9994,2 52291  53.2187 353.9638 0001692  98.3629 261.7555 15.08841987 96972,6917.874,95.437,540.91,538.569,0.0
52291.0,STARLINK-3773,PAYLOAD,2024-01-21 07:38:30,15.08843903,0.0001955,53.2185,353.3683,94.1793,265.9422,-2.7891e-05,-7.32e-06,0.0,0 STARLINK-3773,1 52291U 22041AG  24021.31840971 -.00000732  00000-0 -27891-4 0  9995,2 52291  53.2185 353.3683 0001955  94.1793 265.9422 15.08843903 96993,6917.868,95.437,541.086,538.381,0.0
52291.0,STARLINK-3773,PAYLOAD,2024-01-22 04:18:30,15.08860513,0.0001541,53.2198,349.5014,115.0483,245.0669,-8.1585e-05,-1.587e-05,0.0,0 STARLINK-3773,1 52291U 22041AG  24022.17951674 -.00001587  00000-0 -81585-4 0  9992,2 52291  53.2198 349.5014 0001541 115.0483 245.0669 15.08860513 98341,6917.818,95.436,540.749,538.617,0.0
52291.0,STARLINK-3773,PAYLOAD,2024-01-23 04:09:18,15.08842103,0.0001604,53.2198,345.0399,107.6688,252.4479,5.207e-05,5.41e-06,0.0,0 STARLINK-3773,1 52291U 22041AG  24023.17312704  .00000541  00000-0  52070-4 0  9992,2 52291  53.2198 345.0399 0001604 107.6688 252.4479 15.08842103 98494,6917.874,95.437,540.849,538.629,0.0
52291.0,STARLINK-3773,PAYLOAD,2024-01-24 04:00:05,15.08845136,0.0001636,53.2198,340.582,113.2143,246.9022,1.0892e-05,-1.15e-06,0.0,0 STARLINK-3773,1 52291U 22041AG  24024.16672620 -.00000115  00000-0  10892-4 0  9992,2 52291  53.2198 340.5820 0001636 113.2143 246.9022 15.08845136 97420,6917.865,95.437,540.861,538.598,0.0
52291.0,STARLINK-3773,PAYLOAD,2024-01-25 03:50:52,15.08840957,0.0001459,53.2196,336.1234,109.9139,250.201,3.3145e-05,2.4e-06,0.0,0 STARLINK-3773,1 52291U 22041AG  24025.16033056  .00000240  00000-0  33145-4 0  9991,2 52291  53.2196 336.1234 0001459 109.9139 250.2010 15.08840957 98790,6917.877,95.437,540.752,538.733,0.0
52291.0,STARLINK-3773,PAYLOAD,2024-01-26 03:41:39,15.08824556,0.0001518,53.2193,331.6617,79.3553,280.761,-0.0001037,-1.937e-05,0.0,0 STARLINK-3773,1 52291U 22041AG  24026.15393108 -.00001937  00000-0 -10370-3 0  9998,2 52291  53.2193 331.6617 0001518  79.3553 280.7610 15.08824556 98946,6917.928,95.439,540.843,538.742,0.0
52291.0,STARLINK-3773,PAYLOAD,2024-01-27 03:32:27,15.08829532,0.0001553,53.2191,327.2054,72.2338,287.8824,-0.00011447,-2.109e-05,0.0,0 STARLINK-3773,1 52291U 22041AG  24027.14753736 -.00002109  00000-0 -11447-3 0  9993,2 52291  53.2191 327.2054 0001553  72.2338 287.8824 15.08829532 99093,6917.912,95.438,540.852,538.703,0.0
52291.0,STARLINK-3773,PAYLOAD,2024-01-28 01:47:50,15.08823319,0.0001895,53.2193,323.0402,64.3701,295.7487,0.00022216,3.248e-05,0.0,0 STARLINK-3773,1 52291U 22041AG  24028.07489400  .00003248  00000-0  22216-3 0  9999,2 52291  53.2193 323.0402 0001895  64.3701 295.7487 15.08823319 99237,6917.931,95.439,541.107,538.485,0.0
52291.0,STARLINK-3773,PAYLOAD,2024-01-28 19:17:05,15.08832239,0.0001663,53.2187,319.7698,75.4107,284.7069,0.00013256,1.822e-05,0.0,0 STARLINK-3773,1 52291U 22041AG  24028.80353953  .00001822  00000-0  13256-3 0  9993,2 52291  53.2187 319.7698 0001663  75.4107 284.7069 15.08832239 98127,6917.904,95.438,540.92,538.619,0.0
52291.0,STARLINK-3773,PAYLOAD,2024-01-29 04:49:24,15.0883936,0.0001539,53.2189,317.9819,93.8811,266.2357,0.00018426,2.646e-05,0.0,0 STARLINK-3773,1 52291U 22041AG  24029.20097491  .00002646  00000-0  18426-3 0  9999,2 52291  53.2189 317.9819 0001539  93.8811 266.2357 15.08839360 99401,6917.882,95.438,540.812,538.683,0.0
52291.0,STARLINK-3773,PAYLOAD,2024-01-30 01:29:24,15.08850467,0.0001508,53.2185,314.1156,105.9471,254.1688,6.1282e-05,6.88e-06,0.0,0 STARLINK-3773,1 52291U 22041AG  24030.06209062  .00000688  00000-0  61282-4 0  9997,2 52291  53.2185 314.1156 0001508 105.9471 254.1688 15.08850467 98316,6917.848,95.437,540.757,538.67,0.0
